NORAD_CAT_ID,OBJECT_NAME,OBJECT_TYPE,EPOCH,MEAN_MOTION,ECCENTRICITY,INCLINATION,RA_OF_ASC_NODE,ARG_OF_PERICENTER,MEAN_ANOMALY,BSTAR,MEAN_MOTION_DOT,MEAN_MOTION_DDOT,TLE_LINE0,TLE_LINE1,TLE_LINE2,SEMIMAJOR_AXIS,PERIOD,APOGEE,PERIGEE,DECAYED
53402.0,STARLINK-4499,PAYLOAD,2023-06-12 15:28:11,15.08842661,9.66e-05,53.2168,297.9872,90.4768,269.6335,3.1579e-05,2.15e-06,0.0,0 STARLINK-4499,1 53402U 22097Q   23163.64458331  .00000215  00000-0  31579-4 0  9990,2 53402  53.2168 297.9872 0000966  90.4768 269.6335 15.08842661 46904,6917.872,95.437,540.406,539.069,0.0
53402.0,STARLINK-4499,PAYLOAD,2023-06-13 12:08:13,15.08834026,8.96e-05,53.2173,294.1209,93.0938,267.0157,9.5561e-05,1.233e-05,0.0,0 STARLINK-4499,1 53402U 22097Q   23164.50570686  .00001233  00000-0  95561-4 0  9996,2 53402  53.2173 294.1209 0000896  93.0938 267.0157 15.08834026 47522,6917.899,95.438,540.383,539.144,0.0
53402.0,STARLINK-4499,PAYLOAD,2023-06-13 18:29:45,15.08825321,9.53e-05,53.218,292.9304,113.6256,246.4836,0.00026932,3.999e-05,0.0,0 STARLINK-4499,1 53402U 22097Q   23164.77066663  .00003999  00000-0  26932-3 0  9996,2 53402  53.2180 292.9304 0000953 113.6256 246.4836 15.08825321 47071,6917.925,95.438,540.45,539.131,0.0
53402.0,STARLINK-4499,PAYLOAD,2023-06-14 08:48:13,15.08836934,0.0001101,53.2163,290.2564,102.9926,257.1189,-3.5516e-06,-3.44e-06,0.0,0 STARLINK-4499,1 53402U 22097Q   23165.36682870 -.00000344  00000-0 -35516-5 0  9999,2 53402  53.2163 290.2564 0001101 102.9926 257.1189 15.08836934 47658,6917.89,95.438,540.516,538.993,0.0
53402.0,STARLINK-4499,PAYLOAD,2023-06-14 18:20:32,15.08842119,0.0001023,53.2161,288.4723,103.3192,256.7914,-6.7443e-07,-2.98e-06,0.0,0 STARLINK-4499,1 53402U 22097Q   23165.76426501 -.00000298  00000-0 -67443-6 0  9993,2 53402  53.2161 288.4723 0001023 103.3192 256.7914 15.08842119 47221,6917.874,95.437,540.447,539.031,0.0
53402.0,STARLINK-4499,PAYLOAD,2023-06-15 13:25:11,15.08804708,0.0001266,53.2165,284.9051,104.87,255.2432,0.00039214,5.953e-05,0.0,0 STARLINK-4499,1 53402U 22097Q   23166.55915513  .00005953  00000-0  39214-3 0  9990,2 53402  53.2165 284.9051 0001266 104.8700 255.2432 15.08804708 47838,6917.988,95.44,540.729,538.977,0.0
53402.0,STARLINK-4499,PAYLOAD,2023-06-16 00:32:52,15.08839826,0.0001145,53.217,282.8241,109.0403,251.0713,2.0264e-05,3.5e-07,0.0,0 STARLINK-4499,1 53402U 22097Q   23167.02282786  .00000035  00000-0  20264-4 0  9994,2 53402  53.2170 282.8241 0001145 109.0403 251.0713 15.08839826 47414,6917.881,95.438,540.538,538.954,0.0
53402.0,STARLINK-4499,PAYLOAD,2023-06-16 11:40:33,15.08844265,0.0001007,53.217,280.7429,104.0078,256.1026,0.00017054,2.428e-05,0.0,0 STARLINK-4499,1 53402U 22097Q   23167.48650039  .00002428  00000-0  17054-3 0  9994,2 53402  53.2170 280.7429 0001007 104.0078 256.1026 15.08844265 47976,6917.867,95.437,540.429,539.036,0.0
53402.0,STARLINK-4499,PAYLOAD,2023-06-16 14:51:19,15.08855581,0.0001045,53.2159,280.1471,103.8748,256.236,0.00019174,2.766e-05,0.0,0 STARLINK-4499,1 53402U 22097Q   23167.61897178  .00002766  00000-0  19174-3 0  9996,2 53402  53.2159 280.1471 0001045 103.8748 256.2360 15.08855581 47501,6917.833,95.437,540.421,538.975,0.0
53402.0,STARLINK-4499,PAYLOAD,2023-06-16 16:26:42,15.08856564,0.0001074,53.216,279.8497,103.9988,256.1124,0.00019538,2.824e-05,0.0,0 STARLINK-4499,1 53402U 22097Q   23167.68521025  .00002824  00000-0  19538-3 0  9997,2 53402  53.2160 279.8497 0001074 103.9988 256.1124 15.08856564 48000,6917.83,95.437,540.438,538.952,0.0
53402.0,STARLINK-4499,PAYLOAD,2023-06-17 06:45:12,15.08829454,0.0001275,53.2172,277.1745,95.293,264.8208,-3.6714e-06,-3.46e-06,0.0,0 STARLINK-4499,1 53402U 22097Q   23168.28139608 -.00000346  00000-0 -36714-5 0  9992,2 53402  53.2172 277.1745 0001275  95.2930 264.8208 15.08829454 47605,6917.913,95.438,540.66,538.896,0.0
53402.0,STARLINK-4499,PAYLOAD,2023-06-17 13:06:45,15.08822695,8.45e-05,53.216,275.983,82.137,277.9718,-9.0415e-05,-1.726e-05,0.0,0 STARLINK-4499,1 53402U 22097Q   23168.54636562 -.00001726  00000-0 -90415-4 0  9992,2 53402  53.2160 275.9830 0000845  82.1370 277.9718 15.08822695 47643,6917.933,95.439,540.383,539.214,0.0
53402.0,STARLINK-4499,PAYLOAD,2023-06-17 14:42:08,15.08825799,8.08e-05,53.2161,275.6844,107.557,252.551,-8.4298e-05,-1.628e-05,0.0,0 STARLINK-4499,1 53402U 22097Q   23168.61260323 -.00001628  00000-0 -84298-4 0  9991,2 53402  53.2161 275.6844 0000808 107.5570 252.5510 15.08825799 48142,6917.924,95.438,540.348,539.23,0.0
53402.0,STARLINK-4499,PAYLOAD,2023-06-18 06:36:00,15.08831921,8.83e-05,53.2161,272.7117,77.6502,282.4589,-3.6263e-05,-8.65e-06,0.0,0 STARLINK-4499,1 53402U 22097Q   23169.27500394 -.00000865  00000-0 -36263-4 0  9990,2 53402  53.2161 272.7117 0000883  77.6502 282.4589 15.08831921 47756,6917.905,95.438,540.381,539.159,0.0
53402.0,STARLINK-4499,PAYLOAD,2023-06-18 12:57:32,15.08840978,0.0001103,53.2163,271.5251,72.5283,287.5829,3.3562e-05,2.46e-06,0.0,0 STARLINK-4499,1 53402U 22097Q   23169.53995694  .00000246  00000-0  33562-4 0  9990,2 53402  53.2163 271.5251 0001103  72.5283 287.5829 15.08840978 48284,6917.877,95.437,540.505,538.979,0.0
53402.0,STARLINK-4499,PAYLOAD,2023-06-18 16:08:18,15.08847771,8.92e-05,53.2163,270.9289,68.7477,291.361,1.532e-05,-4.4e-07,0.0,0 STARLINK-4499,1 53402U 22097Q   23169.67243297 -.00000044  00000-0  15320-4 0  9999,2 53402  53.2163 270.9289 0000892  68.7477 291.3610 15.08847771 47811,6917.857,95.437,540.339,539.105,0.0
53402.0,STARLINK-4499,PAYLOAD,2023-06-19 09:37:32,15.08838398,9.68e-05,53.2166,267.6577,62.3352,297.7738,0.00029827,4.462e-05,0.0,0 STARLINK-4499,1 53402U 22097Q   23170.40107117  .00004462  00000-0  29827-3 0  9995,2 53402  53.2166 267.6577 0000968  62.3352 297.7738 15.08838398 48416,6917.885,95.438,540.42,539.081,0.0
53402.0,STARLINK-4499,PAYLOAD,2023-06-19 23:56:00,15.08844489,0.0001039,53.215,264.9859,47.7503,312.3577,0.00023346,3.43e-05,0.0,0 STARLINK-4499,1 53402U 22097Q   23170.99722990  .00003430  00000-0  23346-3 0  9995,2 53402  53.2150 264.9859 0001039  47.7503 312.3577 15.08844489 48016,6917.867,95.437,540.45,539.013,0.0
53402.0,STARLINK-4499,PAYLOAD,2023-06-20 12:39:06,15.08839386,9.11e-05,53.2159,262.6029,68.5591,291.5498,6.6505e-05,7.71e-06,0.0,0 STARLINK-4499,1 53402U 22097Q   23171.52715778  .00000771  00000-0  66505-4 0  9991,2 53402  53.2159 262.6029 0000911  68.5591 291.5498 15.08839386 48587,6917.882,95.438,540.377,539.117,0.0
53402.0,STARLINK-4499,PAYLOAD,2023-06-21 12:29:52,15.08850369,7.91e-05,53.2152,258.1428,76.6003,283.5077,-4.6521e-06,-3.62e-06,0.0,0 STARLINK-4499,1 53402U 22097Q   23172.52074920 -.00000362  00000-0 -46521-5 0  9994,2 53402  53.2152 258.1428 0000791  76.6003 283.5077 15.08850369 48248,6917.849,95.437,540.261,539.166,0.0
53402.0,STARLINK-4499,PAYLOAD,2023-06-22 09:09:54,15.08835339,9.5e-05,53.2154,254.2775,70.7263,289.3832,9.1184e-05,1.164e-05,0.0,0 STARLINK-4499,1 53402U 22097Q   23173.38187627  .00001164  00000-0  91184-4 0  9991,2 53402  53.2154 254.2775 0000950  70.7263 289.3832 15.08835339 48379,6917.895,95.438,540.417,539.102,0.0
53402.0,STARLINK-4499,PAYLOAD,2023-06-22 15:31:25,15.08845198,8.44e-05,53.2158,253.0868,73.579,286.5295,0.00012511,1.704e-05,0.0,0 STARLINK-4499,1 53402U 22097Q   23173.64682839  .00001704  00000-0  12511-3 0  9991,2 53402  53.2158 253.0868 0000844  73.5790 286.5295 15.08845198 48412,6917.865,95.437,540.313,539.146,0.0
53402.0,STARLINK-4499,PAYLOAD,2023-06-22 21:52:58,15.08839547,9.14e-05,53.2155,251.8959,70.5486,289.5605,8.8755e-05,1.125e-05,0.0,0 STARLINK-4499,1 53402U 22097Q   23173.91179307  .00001125  00000-0  88755-4 0  9993,2 53402  53.2155 251.8959 0000914  70.5486 289.5605 15.08839547 48456,6917.882,95.438,540.379,539.114,0.0
53402.0,STARLINK-4499,PAYLOAD,2023-06-23 23:19:09,15.0883646,0.0001026,53.2162,247.1413,81.0872,279.0237,4.9917e-05,5.07e-06,0.0,0 STARLINK-4499,1 53402U 22097Q   23174.97163700  .00000507  00000-0  49917-4 0  9990,2 53402  53.2162 247.1413 0001026  81.0872 279.0237 15.08836460 48612,6917.891,95.438,540.466,539.046,0.0
53402.0,STARLINK-4499,PAYLOAD,2023-06-25 03:56:06,15.0883619,9.85e-05,53.2157,241.7875,85.7768,274.3336,7.1867e-05,8.56e-06,0.0,0 STARLINK-4499,1 53402U 22097Q   23176.16395987  .00000856  00000-0  71867-4 0  9993,2 53402  53.2157 241.7875 0000985  85.7768 274.3336 15.08836190 48793,6917.892,95.438,540.438,539.076,0.0
53402.0,STARLINK-4499,PAYLOAD,2023-06-25 11:53:01,15.08844052,0.0001006,53.2156,240.3006,85.2635,274.8472,6.1278e-05,6.88e-06,0.0,0 STARLINK-4499,1 53402U 22097Q   23176.49515570  .00000688  00000-0  61278-4 0  9999,2 53402  53.2156 240.3006 0001006  85.2635 274.8472 15.08844052 48844,6917.868,95.437,540.429,539.037,0.0
53402.0,STARLINK-4499,PAYLOAD,2023-06-26 10:08:25,15.08838944,0.0001056,53.2142,236.1366,93.2323,266.879,0.00014849,2.076e-05,0.0,0 STARLINK-4499,1 53402U 22097Q   23177.42251940  .00002076  00000-0  14849-3 0  9995,2 53402  53.2142 236.1366 0001056  93.2323 266.8790 15.08838944 48981,6917.884,95.438,540.479,539.018,0.0
53402.0,STARLINK-4499,PAYLOAD,2023-06-28 03:28:27,15.08838919,0.0001048,53.215,228.4058,89.1086,271.0026,7.2397e-05,8.65e-06,0.0,0 STARLINK-4499,1 53402U 22097Q   23179.14476047  .00000865  00000-0  72397-4 0  9990,2 53402  53.2150 228.4058 0001048  89.1086 271.0026 15.08838919 49245,6917.884,95.438,540.474,539.024,0.0
53402.0,STARLINK-4499,PAYLOAD,2023-06-29 09:40:47,15.08836729,0.0001125,53.2151,222.7558,89.851,270.2611,3.3744e-05,2.49e-06,0.0,0 STARLINK-4499,1 53402U 22097Q   23180.40332276  .00000249  00000-0  33744-4 0  9995,2 53402  53.2151 222.7558 0001125  89.8510 270.2611 15.08836729 49432,6917.89,95.438,540.534,538.977,0.0
53402.0,STARLINK-4499,PAYLOAD,2023-06-30 14:17:43,15.08842125,0.00011,53.2154,217.4023,91.1254,268.9864,6.4763e-05,7.43e-06,0.0,0 STARLINK-4499,1 53402U 22097Q   23181.59563832  .00000743  00000-0  64763-4 0  9994,2 53402  53.2154 217.4023 0001100  91.1254 268.9864 15.08842125 49618,6917.874,95.437,540.5,538.978,0.0
